NORAD_CAT_ID,OBJECT_NAME,OBJECT_TYPE,EPOCH,MEAN_MOTION,ECCENTRICITY,INCLINATION,RA_OF_ASC_NODE,ARG_OF_PERICENTER,MEAN_ANOMALY,BSTAR,MEAN_MOTION_DOT,MEAN_MOTION_DDOT,TLE_LINE0,TLE_LINE1,TLE_LINE2,SEMIMAJOR_AXIS,PERIOD,APOGEE,PERIGEE,DECAYED
52472.0,STARLINK-3881,PAYLOAD,2022-07-09 14:00:01,15.34648847,0.0002021,53.2173,311.6004,32.7372,90.7796,-0.034142,-0.01067353,0.0,0 STARLINK-3881,1 52472U 22049X   22190.58334491 -.01067353  00000-0 -34142-1 0  9990,2 52472  53.2173 311.6004 0002021  32.7372  90.7796 15.34648847  1309,6840.101,93.833,463.348,460.583,0.0
52472.0,STARLINK-3881,PAYLOAD,2022-07-09 20:00:01,15.34078853,0.0001503,53.2171,310.4341,43.6006,21.6085,-0.03471,-0.01065537,0.0,0 STARLINK-3881,1 52472U 22049X   22190.83334491 -.01065537  00000-0 -34710-1 0  9991,2 52472  53.2171 310.4341 0001503  43.6006  21.6085 15.34078853  1305,6841.795,93.867,464.68800000000016,462.632,0.0
52472.0,STARLINK-3881,PAYLOAD,2022-07-10 14:00:01,15.32369187,0.000194,53.2173,306.9398,36.2766,210.9305,-0.036623,-0.01064999,0.0,0 STARLINK-3881,1 52472U 22049X   22191.58334491 -.01064999  00000-0 -36623-1 0  9990,2 52472  53.2173 306.9398 0001940  36.2766 210.9305 15.32369187 10382,6846.8830000000025,93.972,470.076,467.42,0.0
52472.0,STARLINK-3881,PAYLOAD,2022-07-10 22:00:00,15.31613005,0.0001529,53.2172,305.3895,47.4177,239.1933,-0.037722,-0.01070539,0.0,0 STARLINK-3881,1 52472U 22049X   22191.91667824 -.01070539  00000-0 -37722-1 0  9994,2 52472  53.2172 305.3895 0001529  47.4177 239.1933 15.31613005  1301,6849.136,94.019,472.049,469.954,0.0
52472.0,STARLINK-3881,PAYLOAD,2022-07-11 14:00:01,15.30093078,0.0001845,53.2172,302.2953,31.9284,330.7539,-0.03948,-0.01068639,0.0,0 STARLINK-3881,1 52472U 22049X   22192.58334491 -.01068639  00000-0 -39480-1 0  9990,2 52472  53.2172 302.2953 0001845  31.9284 330.7539 15.30093078 10547,6853.670999999999,94.112,476.801,474.272,0.0
52472.0,STARLINK-3881,PAYLOAD,2022-07-11 22:00:00,15.29333182,0.0001585999999999,53.2173,300.7504,39.2549,0.0947,-0.040394,-0.01067878,0.0,0 STARLINK-3881,1 52472U 22049X   22192.91667824 -.01067878  00000-0 -40394-1 0  9996,2 52472  53.2173 300.7504 0001586  39.2549   0.0947 15.29333182  1305,6855.941,94.159,478.894,476.719,0.0
52472.0,STARLINK-3881,PAYLOAD,2022-07-12 14:00:01,15.27814114,0.0001967,53.2173,297.6671,35.0816,74.863,-0.042318,-0.01067636,0.0,0 STARLINK-3881,1 52472U 22049X   22193.58334491 -.01067636  00000-0 -42318-1 0  9991,2 52472  53.2173 297.6671 0001967  35.0816  74.8630 15.27814114 10695,6860.485,94.252,483.7,481.001,0.0
52472.0,STARLINK-3881,PAYLOAD,2022-07-12 22:00:00,15.27053274,0.000183,53.2173,296.1272,39.2922,104.5822,-0.043208,-0.01065164,0.0,0 STARLINK-3881,1 52472U 22049X   22193.91667824 -.01065164  00000-0 -43208-1 0  9990,2 52472  53.2173 296.1272 0001830  39.2922 104.5822 15.27053274  1303,6862.764,94.299,485.885,483.37300000000016,0.0
52472.0,STARLINK-3881,PAYLOAD,2022-07-13 14:00:01,15.25533506,0.0002,53.2174,293.0548,38.0028,170.9907,-0.045181,-0.01063651,0.0,0 STARLINK-3881,1 52472U 22049X   22194.58334491 -.01063651  00000-0 -45181-1 0  9996,2 52472  53.2174 293.0548 0002000  38.0028 170.9907 15.25533506 10849,6867.321,94.393,490.559,487.812,0.0
52472.0,STARLINK-3881,PAYLOAD,2022-07-13 22:00:00,15.24775956,0.0001705,53.2174,291.5202,44.6883,195.4958,-0.04639,-0.01067029,0.0,0 STARLINK-3881,1 52472U 22049X   22194.91667824 -.01067029  00000-0 -46390-1 0  9998,2 52472  53.2174 291.5202 0001705  44.6883 195.4958 15.24775956  1307,6869.595,94.44,492.632,490.289,0.0
52472.0,STARLINK-3881,PAYLOAD,2022-07-14 14:00:01,15.23255593,0.0001885,53.2174,288.4587,35.6848,264.1424,-0.048419,-0.01064308,0.0,0 STARLINK-3881,1 52472U 22049X   22195.58334491 -.01064308  00000-0 -48419-1 0  9994,2 52472  53.2174 288.4587 0001885  35.6848 264.1424 15.23255593 11007,6874.166,94.534,497.326,494.735,0.0
52472.0,STARLINK-3881,PAYLOAD,2022-07-14 22:00:00,15.2249774,0.0001636,53.2174,286.9292,39.4107,288.8696,-0.049694,-0.01067582,0.0,0 STARLINK-3881,1 52472U 22049X   22195.91667824 -.01067582  00000-0 -49694-1 0  9993,2 52472  53.2174 286.9292 0001636  39.4107 288.8696 15.22497740  1304,6876.446999999999,94.581,499.437,497.187,0.0
52472.0,STARLINK-3881,PAYLOAD,2022-07-15 14:00:01,15.20977858,0.000232,53.2174,283.8786,17.6566,4.7905,-0.051858,-0.01065392,0.0,0 STARLINK-3881,1 52472U 22049X   22196.58334491 -.01065392  00000-0 -51858-1 0  9990,2 52472  53.2174 283.8786 0002320  17.6566   4.7905 15.20977858 11159,6881.026999999999,94.676,504.48800000000006,501.295,0.0
52472.0,STARLINK-3881,PAYLOAD,2022-07-15 22:00:00,15.20218011,0.00015,53.2175,282.3543,42.8263,5.3367,-0.053025,-0.01065129,0.0,0 STARLINK-3881,1 52472U 22049X   22196.91667824 -.01065129  00000-0 -53025-1 0  9992,2 52472  53.2175 282.3543 0001500  42.8263   5.3367 15.20218011  1302,6883.319,94.723,506.217,504.152,0.0
52472.0,STARLINK-3881,PAYLOAD,2022-07-16 14:00:01,15.18699284,0.0001718,53.2175,279.3144,44.8364,52.017,-0.055438,-0.01078799,0.0,0 STARLINK-3881,1 52472U 22049X   22197.58334491 -.01078799  00000-0 -55438-1 0  9994,2 52472  53.2175 279.3144 0001718  44.8364  52.0170 15.18699284 11304,6887.908,94.818,510.956,508.589,0.0
52472.0,STARLINK-3881,PAYLOAD,2022-07-16 22:00:00,15.17938857,0.0001571,53.2175,277.7954,51.9758,67.8555,-0.056583,-0.01077158,0.0,0 STARLINK-3881,1 52472U 22049X   22197.91667824 -.01077158  00000-0 -56583-1 0  9990,2 52472  53.2175 277.7954 0001571  51.9758  67.8555 15.17938857  1309,6890.208000000001,94.865,513.155,510.99,0.0
52472.0,STARLINK-3881,PAYLOAD,2022-07-17 14:00:01,15.16418902,0.0001705,53.2175,274.7663,52.3457,110.7005,-0.059008,-0.01075342,0.0,0 STARLINK-3881,1 52472U 22049X   22198.58334491 -.01075342  00000-0 -59008-1 0  9993,2 52472  53.2175 274.7663 0001705  52.3457 110.7005 15.16418902 11451,6894.811,94.961,517.852,515.501,0.0
52472.0,STARLINK-3881,PAYLOAD,2022-07-17 22:00:00,15.15660379,0.0001614,53.2174,273.2523,54.5935,128.692,-0.060401,-0.01076934,0.0,0 STARLINK-3881,1 52472U 22049X   22198.91667824 -.01076934  00000-0 -60401-1 0  9996,2 52472  53.2174 273.2523 0001614  54.5935 128.6920 15.15660379  1306,6897.111,95.008,520.09,517.863,0.0
52472.0,STARLINK-3881,PAYLOAD,2022-07-18 14:00:01,15.14139108,0.0001786999999999,53.2175,270.2339,47.7957,173.2291,-0.062806,-0.01072731,0.0,0 STARLINK-3881,1 52472U 22049X   22199.58334491 -.01072731  00000-0 -62806-1 0  9993,2 52472  53.2175 270.2339 0001787  47.7957 173.2291 15.14139108  1305,6901.73,95.104,524.8290000000002,522.362,0.0
52472.0,STARLINK-3881,PAYLOAD,2022-07-18 16:00:00,15.13948605,0.0001609,53.2173,269.857,43.9772,271.5085,-0.063044,-0.01071097,0.0,0 STARLINK-3881,1 52472U 22049X   22199.66667824 -.01071097  00000-0 -63044-1 0  9990,2 52472  53.2173 269.8570 0001609  43.9772 271.5085 15.13948605 11628,6902.309,95.116,525.285,523.064,0.0
52472.0,STARLINK-3881,PAYLOAD,2022-07-18 22:00:00,15.13382063,0.000159,53.2175,268.7252,54.312,184.2137,-0.064449,-0.010771,0.0,0 STARLINK-3881,1 52472U 22049X   22199.91667824 -.01077100  00000-0 -64449-1 0  9999,2 52472  53.2175 268.7252 0001590  54.3120 184.2137 15.13382063  1309,6904.031999999997,95.151,526.995,524.799,0.0
52472.0,STARLINK-3881,PAYLOAD,2022-07-19 14:00:01,15.11860129,0.0001629999999999,53.2175,265.7175,51.4939,219.2953,-0.066896,-0.01071622,0.0,0 STARLINK-3881,1 52472U 22049X   22200.58334491 -.01071622  00000-0 -66896-1 0  9997,2 52472  53.2175 265.7175 0001630  51.4939 219.2953 15.11860129 11769,6908.6640000000025,95.247,531.656,529.403,0.0
52472.0,STARLINK-3881,PAYLOAD,2022-07-19 22:00:00,15.111031900000002,0.0001508,53.2175,264.214,53.0591,232.4931,-0.068661,-0.01076483,0.0,0 STARLINK-3881,1 52472U 22049X   22200.91667824 -.01076483  00000-0 -68661-1 0  9995,2 52472  53.2175 264.2140 0001508  53.0591 232.4931 15.11103190  1301,6910.971,95.295,533.879,531.794,0.0
52472.0,STARLINK-3881,PAYLOAD,2022-07-20 14:00:01,15.09457709,0.0001416999999999,53.2175,261.2166,51.2979,261.0614,-0.043919,-0.00665373,0.0,0 STARLINK-3881,1 52472U 22049X   22201.58334491 -.00665373  00000-0 -43919-1 0  9990,2 52472  53.2175 261.2166 0001417  51.2979 261.0614 15.09457709  1306,6915.993,95.398,538.8380000000002,536.878,0.0
52472.0,STARLINK-3881,PAYLOAD,2022-07-20 22:00:01,15.08861465,0.0001530999999999,53.2175,259.7178,49.563,274.9308,-0.0026509,-0.00042255,0.0,0 STARLINK-3881,1 52472U 22049X   22201.91668981 -.00042255  00000-0 -26509-2 0  9996,2 52472  53.2175 259.7178 0001531  49.5630 274.9308 15.08861465  1302,6917.815,95.436,540.739,538.621,0.0
52472.0,STARLINK-3881,PAYLOAD,2022-07-21 14:00:01,15.08857838,0.0001778,53.2169,256.7199,49.207,298.4919,-0.00066591,-0.00010876,0.0,0 STARLINK-3881,1 52472U 22049X   22202.58335648 -.00010876  00000-0 -66591-3 0  9991,2 52472  53.2169 256.7199 0001778  49.2070 298.4919 15.08857838 12066,6917.826,95.436,540.9209999999998,538.461,0.0
52472.0,STARLINK-3881,PAYLOAD,2022-07-21 22:00:00,15.08840422,0.0001513,53.2168,255.2219,51.4468,307.8129,-0.0027427,-0.00043674,0.0,0 STARLINK-3881,1 52472U 22049X   22202.91667824 -.00043674  00000-0 -27427-2 0  9998,2 52472  53.2168 255.2219 0001513  51.4468 307.8129 15.08840422  1309,6917.879,95.438,540.7909999999998,538.697,0.0
52472.0,STARLINK-3881,PAYLOAD,2022-07-22 06:00:00,15.08830905,0.0001492,53.2169,253.7261,51.783,319.0482,-0.0013627,-0.00021904,0.0,0 STARLINK-3881,1 52472U 22049X   22203.25001157 -.00021904  00000-0 -13627-2 0  9996,2 52472  53.2169 253.7261 0001492  51.7830 319.0482 15.08830905  1304,6917.908,95.438,540.805,538.741,0.0
52472.0,STARLINK-3881,PAYLOAD,2022-07-22 22:00:00,15.08810898,0.0001478,53.2163,250.7331,50.6927,343.2857,0.0012025,0.00018886,0.0,0 STARLINK-3881,1 52472U 22049X   22203.91667824  .00018886  00000-0  12025-2 0  9992,2 52472  53.2163 250.7331 0001478  50.6927 343.2857 15.08810898  1306,6917.969,95.439,540.857,538.812,0.0
